CUTE-1 (CO-55)          
1 27844U 03031E   25210.56716001  .00000309  00000+0  15338-3 0  9992
2 27844  98.6766 218.1970 0010536  47.7367 312.4704 14.24028506145751
CUBESAT XI-IV (CO-57)   
1 27848U 03031J   25210.53899849  .00000261  00000+0  13427-3 0  9999
2 27848  98.6794 218.1369 0010636  63.6272 296.5997 14.23358714145472
MOZHAYETS 4 (RS-22)     
1 27939U 03042A   25210.55652334  .00001152  00000+0  18990-3 0  9990
2 27939  98.3324  21.2287 0010824 206.0984 245.8617 14.72450911168188
IRS-P6 (RESOURCESAT-1)  
1 28051U 03046A   25210.57800315  .00000109  00000+0  50810-4 0  9995
2 28051  98.2381 257.1240 0063213 229.1165 252.1856 14.35994543134229
SAUDISAT 2              
1 28371U 04025F   25210.56883850  .00000291  00000+0  76539-4 0  9990
2 28371  98.5284 197.6389 0024294 205.1929 154.8085 14.56355538118782
COSMOS 2407             
1 28380U 04028A   25210.56409332  .00000073  00000+0  58620-4 0  9991
2 28380  82.9631 313.7480 0040547  75.4619 295.5490 13.76295335 55503
COSMOS 2414             
1 28521U 05002A   25210.56385470  .00000082  00000+0  55380-4 0  9997
2 28521  82.9500 287.6515 0040544 167.4390 192.7794 13.87881299 39068
INMARSAT 4-F1           
1 28628U 05009A   25210.37062222  .00000030  00000+0  00000+0 0  9995
2 28628   4.7450  42.3907 0001717 101.5274 114.8585  1.00272325 74431
HAMSAT (VO-52)          
1 28650U 05017B   25210.53468271  .00004975  00000+0  34785-3 0  9994
2 28650  98.0047 215.5546 0022358  51.3289 308.9932 15.05591204 98145
NOAA 18                 
1 28654U 05018A   25210.52198390  .00000084  00000+0  67673-4 0  9990
2 28654  98.8412 289.4346 0013933 352.3610   7.7348 14.13622530 40723
SJ-7                    
1 28737U 05024A   25210.54095173  .00007753  00000+0  41343-3 0  9991
2 28737  97.7575 227.8360 0019490  71.1928 289.1416 15.15299573 99060
CUBESAT XI-V            
1 28895U 05043F   25210.37539110  .00001746  00000+0  29161-3 0  9992
2 28895  98.2562 355.3683 0015252 145.3934 214.8268 14.71152208 54262
CLOUDSAT                
1 29107U 06016A   25210.59662549  .00001200  00000+0  14650-3 0  9999
2 29107  98.4221 224.5982 0004122 302.4511  57.6303 14.85348481 26608
CALIPSO                 
1 29108U 06016B   25210.54889023  .00001198  00000+0  21666-3 0  9994
2 29108  98.4488 210.3400 0001191 109.6880 250.4452 14.68322953 25694
HINODE (SOLAR-B)        
1 29479U 06041A   25210.58492518  .00000759  00000+0  14078-3 0  9997
2 29479  98.0714 226.3253 0016539 228.1213 131.8581 14.67988333  7532
METOP-A                 
1 29499U 06044A   25210.53486228  .00001430  00000+0  17513-3 0  9992
2 29499  98.3315 302.6993 0178996  17.4207 107.5750 14.74212631977882
SHIJIAN-6 02B (SJ-6 02B)
1 29506U 06046B   25210.55752315  .00002106  00000+0  17410-3 0  9995
2 29506  97.7045 237.5863 0008936  66.2075 294.0085 14.99985114 22353
DMSP 5D-3 F17 (USA 191) 
1 29522U 06050A   25210.56937335  .00000081  00000+0  64368-4 0  9991
2 29522  98.7395 218.7541 0008925 256.0366 103.9815 14.14843104966797
LAPAN-TUBSAT            
1 29709U 07001A   25210.51610647  .00000502  00000+0  64908-4 0  9992
2 29709  98.1126 197.9666 0012939 150.4678 209.7270 14.85390303  3247
HAIYANG-1B              
1 31113U 07010A   25210.59077124  .00000097  00000+0  52693-4 0  9996
2 31113  98.3164 200.5751 0014862  78.8001 281.4853 14.30905428954495
BEIDOU-2 M1             
1 31115U 07011A   25209.73825975  .00000034  00000+0  00000+0 0  9999
2 31115  51.0531 230.0273 0001817 317.5741  42.4463  1.77349449 70413
CAPE-1                  
1 31130U 07012P   25210.42786931  .00002003  00000+0  37641-3 0  9996
2 31130  98.4007 172.4218 0085451 359.3564   0.7513 14.63531654971114
CBERS 2B                
1 32062U 07042A   25210.60182935  .00000215  00000+0  79627-4 0  9992
2 32062  98.3497 156.6912 0030196 224.7860 308.3761 14.41210919938216
COSMO-SKYMED 2          
1 32376U 07059A   25210.52824780  .00000470  00000+0  65650-4 0  9994
2 32376  97.8891  33.8058 0001368  90.3925 269.7445 14.82153707954203
CARTOSAT-2A             
1 32783U 08021A   25210.53063533  .00000769  00000+0  11140-3 0  9993
2 32783  97.8122 264.4683 0012590  82.2962 277.9679 14.78753920931111
CUTE-1.7+APD II (CO-65) 
1 32785U 08021C   25210.54918777  .00005546  00000+0  39656-3 0  9995
2 32785  97.7874 182.1045 0010766  50.1041 310.1130 15.04831454936597
COMPASS-1               
1 32787U 08021E   25210.52947329  .00057738  00000+0  10397-2 0  9990
2 32787  97.6447 203.5667 0006183 163.8575 196.2874 15.49602256939972
SEEDS II (CO-66)        
1 32791U 08021J   25210.49848479  .00012928  00000+0  60791-3 0  9993
2 32791  97.7306 191.6948 0003798  30.1519 329.9933 15.19712984938072
YUBILEINY (RS-30)       
1 32953U 08025A   25210.54036982  .00000009  00000+0 -57436-5 0  9993
2 32953  82.5020 196.1084 0018121 299.0688  60.8576 12.43166625779602
FENGYUN 3A              
1 32958U 08026A   25210.57332217  .00000083  00000+0  59894-4 0  9992
2 32958  98.6488 153.1354 0008430 345.4013  14.6918 14.19457702889632
HUANJING 1A (HJ-1A)     
1 33320U 08041A   25210.54482442  .00001331  00000+0  17011-3 0  9997
2 33320  97.6429 204.6481 0020854 115.7565 244.5805 14.82816454910577
HUANJING 1B (HJ-1B)     
1 33321U 08041B   25210.59027469  .00000989  00000+0  12848-3 0  9998
2 33321  97.6311 208.7127 0037550 159.6810 200.5908 14.82338244910607
SHIJIAN-6 03A (SJ-6 03A)
1 33408U 08053A   25210.53241066  .00006136  00000+0  35591-3 0  9992
2 33408  97.8719 228.0698 0013456  45.5595 314.6733 15.12477325914118
SHIJIAN-6 03B (SJ-6 03B)
1 33409U 08053B   25210.58707298  .00001968  00000+0  15159-3 0  9998
2 33409  97.8701 220.1957 0020756  49.4352 310.8675 15.02694243914275
CHUANGXIN 1-02 (CX-1-02)
1 33434U 08056B   25210.55048219  .00000067  00000+0  43109-4 0  9993
2 33434  98.6451 234.5086 0014468  12.5708 347.5832 14.30055203872884
STARS (KUKAI)           
1 33498U 09002G   25210.55060237  .00004207  00000+0  41903-3 0  9998
2 33498  98.1230 141.2447 0009841 145.8874 214.2978 14.92148693890304
KKS-1 (KISEKI)          
1 33499U 09002H   25210.49685419  .00001425  00000+0  18769-3 0  9990
2 33499  98.1162 123.2375 0006684 253.2373 106.8106 14.81749912888382
NOAA 19                 
1 33591U 09005A   25210.53649620  .00000198  00000+0  12947-3 0  9993
2 33591  98.9948 275.5154 0013151 219.0660 140.9563 14.13395765848905
UK-DMC 2                
1 35683U 09041C   25210.52984952  .00000894  00000+0  13944-3 0  9997
2 35683  97.8384 349.4772 0001175  96.3090 263.8253 14.75212550858982
METEOR-M 1              
1 35865U 09049A   25210.49879380  .00000088  00000+0  58271-4 0  9999
2 35865  98.6884 171.1883 0002731 139.5073 220.6309 14.23034519823357
OCEANSAT-2              
1 35931U 09051A   25210.57646734 -.00000212  00000+0 -11914-3 0  9993
2 35931  98.2235 224.9431 0016717  68.9220 291.3732 13.99598028834204
SWISSCUBE               
1 35932U 09051B   25210.47573992  .00001062  00000+0  22448-3 0  9994
2 35932  98.4241 107.6352 0007788 129.0472 231.1423 14.61431496842000
BEESAT-1                
1 35933U 09051C   25210.47034813  .00000893  00000+0  19277-3 0  9996
2 35933  98.4173 107.8947 0006029 138.7475 221.4181 14.60831500842051
ITUPSAT1                
1 35935U 09051E   25210.45986211  .00000821  00000+0  18267-3 0  9993
2 35935  98.4266 107.3832 0008044 150.4103 209.7553 14.59622935841646
DMSP 5D-3 F18 (USA 210) 
1 35951U 09057A   25210.50930887  .00000263  00000+0  15983-3 0  9993
2 35951  98.8627 187.7252 0012333  88.1360 272.1225 14.14660987813969
PROBA-2                 
1 36037U 09059B   25210.51569682  .00000217  00000+0  61455-4 0  9998
2 36037  98.2394  33.4916 0012886 191.8612 168.2283 14.54580697834616
YAOGAN-7                
1 36110U 09069A   25210.58142974  .00000515  00000+0  79425-4 0  9996
2 36110  98.0488  92.7382 0024928   2.2137 357.9179 14.77472828841982
XIWANG-1 (HOPE-1)       
1 36122U 09072B   25210.47414613 -.00000043  00000+0  41360-5 0  9998
2 36122 100.3513 165.2048 0006822 250.3192 109.7185 13.16426364750543
RADUGA-1M 2             
1 36358U 10002A   25210.55398524 -.00000048  00000+0  00000+0 0  9990
2 36358   2.7760  82.9776 0004037 248.5974 199.4335  0.98968116 46834
COSMOS 2463             
1 36519U 10017A   25210.50043134  .00000064  00000+0  54649-4 0  9994
2 36519  82.9620 126.8253 0035090 307.1301 226.3192 13.71634215763691
CARTOSAT-2B             
1 36795U 10035A   25210.56632749  .00000748  00000+0  10857-3 0  9993
2 36795  97.8059 263.8352 0012523 152.2363 207.9519 14.78767784812175
AISSAT 1                
1 36797U 10035C   25210.56950818  .00002485  00000+0  23127-3 0  9999
2 36797  98.1281  93.2661 0010620  51.5738 308.6434 14.95260535815976
TISAT 1                 
1 36799U 10035E   25210.32315529  .00013165  00000+0  65767-3 0  9992
2 36799  98.0544 127.5022 0001364 304.7495  55.3608 15.17614551818517
YAOGAN-10               
1 36834U 10038A   25210.55305888  .00000665  00000+0  85774-4 0  9999
2 36834  97.9249 231.3036 0001654  91.2373  25.6014 14.84271738809331
SHIJIAN-6 04B (SJ-6 04B)
1 37180U 10051B   25210.51491096  .00000851  00000+0  76522-4 0  9990
2 37180  97.8614 207.9169 0010017 314.0744  45.9653 14.98340370807345
FENGYUN 3B              
1 37214U 10059A   25210.61403909  .00000076  00000+0  63012-4 0  9992
2 37214  99.0103 249.4724 0022473  23.1964  88.7032 14.14741557761816
COSMO-SKYMED 4          
1 37216U 10060A   25210.54091115  .00000476  00000+0  66373-4 0  9997
2 37216  97.8889  33.8205 0001401  87.2248 272.9126 14.82153695796777
O/OREOS (USA 219)       
1 37224U 10062C   25210.39616420  .00002257  00000+0  23006-3 0  9997
2 37224  71.9709  90.4166 0016019 315.5776  44.4107 14.91663838 68474
ELEKTRO-L 1 (GOMS 2)    
1 37344U 11001A   25210.51752740 -.00000190  00000+0  00000+0 0  9994
2 37344   8.9495  57.7275 0004608  36.8379  15.9099  1.00242844 53258
